0 BREEZE-M DEB
1 38932U 12044BR  13281.98474353  .01016068  12925-3  11429-1 0  5576
2 38932 049.1366 142.2353 0996267 312.9914 039.1508 13.73624662 41320
0 BREEZE-M DEB
1 38932U 12044BR  13284.01885778  .00950325  11469-3  10517-1 0  5582
2 38932 049.1339 134.0331 0979815 320.1168 033.1526 13.77482579 41605
0 BREEZE-M DEB
1 38932U 12044BR  13285.97534144  .00928061  11061-3  10190-1 0  5594
2 38932 049.1320 126.1033 0965137 326.9985 027.4046 13.80824158 41878
0 BREEZE-M DEB
1 38932U 12044BR  13286.55414366  .00924936  11021-3  10132-1 0  5603
2 38932 049.1322 123.7476 0960809 329.0539 025.6953 13.81809782 41957
0 BREEZE-M DEB
1 38932U 12044BR  13287.49382964  .00971278  12174-3  10537-1 0  5616
2 38932 049.1343 119.9223 0954507 332.4359 022.8852 13.83340610 42087
0 BREEZE-M DEB
1 38932U 12044BR  13287.78274495  .01057691  14413-3  11452-1 0  5628
2 38932 049.1330 118.7418 0951827 333.4630 022.0367 13.83957778 42128
0 BREEZE-M DEB
1 38932U 12044BR  13287.92714927  .01173172  17719-3  12715-1 0  5632
2 38932 049.1324 118.1505 0950385 333.9920 021.6000 13.84258393 42146
0 BREEZE-M DEB
1 38932U 12044BR  13288.43230248  .01173933  17806-3  12665-1 0  5645
2 38932 049.1317 116.0840 0945111 335.7702 020.1346 13.85486451 42210
0 BREEZE-M DEB
1 38932U 12044BR  13288.64866518  .01092395  15454-3  11751-1 0  5658
2 38932 049.1317 115.1983 0943134 336.5449 019.4949 13.85965571 42246
0 BREEZE-M DEB
1 38932U 12044BR  13289.44141064  .01117735  16247-3  11958-1 0  5666
2 38932 049.1309 111.9457 0936555 339.3684 017.1621 13.87493758 42357
0 BREEZE-M DEB
1 38932U 12044BR  13289.65745771  .01145825  17088-3  12240-1 0  5675
2 38932 049.1308 111.0579 0934986 340.1533 016.5129 13.87861340 42386
0 BREEZE-M DEB
1 38932U 12044BR  13290.52077067  .00920772  00000-0  86797-2 0  5694
2 38932 049.1409 107.5022 0932190 343.3545 013.8800 13.90298821 42506
0 BREEZE-M DEB
1 38932U 12044BR  13290.52102441  .01146040  17183-3  12141-1 0  5681
2 38932 049.1295 107.5049 0927772 343.2347 013.9683 13.89573003 42503
0 BREEZE-M DEB
1 38932U 12044BR  13291.45533195  .01062145  14865-3  11158-1 0  5693
2 38932 049.1287 103.6491 0919729 346.5943 011.1935 13.91469140 42636
0 BREEZE-M DEB
1 38932U 12044BR  13291.74255881  .01055985  14720-3  11067-1 0  5703
2 38932 049.1284 102.4620 0917478 347.6309 010.3364 13.92000077 42673
0 BREEZE-M DEB
1 38932U 12044BR  13291.81434715  .00963603  12309-3  10097-1 0  5714
2 38932 049.1284 102.1647 0916857 347.8847 010.1266 13.92140505 42689
0 BREEZE-M DEB
1 38932U 12044BR  13292.46012263  .01056174  14789-3  11021-1 0  5726
2 38932 049.1278 099.4909 0911325 350.2112 008.2026 13.93418410 42775
0 BREEZE-M DEB
1 38932U 12044BR  13292.74694495  .01064454  15045-3  11070-1 0  5731
2 38932 049.1275 098.3017 0909058 351.2460 007.3458 13.93968194 42810
0 BREEZE-M DEB
1 38932U 12044BR  13292.89031281  .01000580  13334-3  10387-1 0  5745
2 38932 049.1275 097.7069 0907896 351.7598 006.9203 13.94251940 42835
0 BREEZE-M DEB
1 38932U 12044BR  13293.46349008  .01096583  16026-3  11336-1 0  5753
2 38932 049.1270 095.3263 0902988 353.8354 005.2004 13.95393622 42915
0 BREEZE-M DEB
1 38932U 12044BR  13293.82148719  .01095587  16030-3  11274-1 0  5769
2 38932 049.1267 093.8374 0900325 355.1312 004.1252 13.96049113 42961
0 BREEZE-M DEB
1 38932U 12044BR  13294.75141305  .01212512  19740-3  12363-1 0  5777
2 38932 049.1258 089.9618 0892087 358.5020 001.3241 13.98000380 43093
0 BREEZE-M DEB
1 38932U 12044BR  13294.89436214  .01080057  15691-3  11011-1 0  5786
2 38932 049.1258 089.3649 0890948 359.0171 000.8953 13.98253215 43112
0 BREEZE-M DEB
1 38932U 12044BR  13295.46587945  .01221140  20120-3  12385-1 0  5797
2 38932 049.1251 086.9765 0885485 001.0984 359.1605 13.99533006 43195
0 BREEZE-M DEB
1 38932U 12044BR  13295.60867733  .01180238  18807-3  11952-1 0  5801
2 38932 049.1251 086.3791 0884506 001.6224 358.7233 13.99771561 43219
